[{"OBJECT_NAME":"SES-2","OBJECT_ID":"2011-049A","EPOCH":"2026-03-07T02:58:38.621568","MEAN_MOTION":1.00271757,"ECCENTRICITY":0.0002899,"INCLINATION":0.0261,"RA_OF_ASC_NODE":75.568,"ARG_OF_PERICENTER":273.3584,"MEAN_ANOMALY":133.553,"EPHEMERIS_TYPE":0,"CLASSIFICATION_TYPE":"U","NORAD_CAT_ID":37809,"ELEMENT_SET_NO":999,"REV_AT_EPOCH":5294,"BSTAR":0,"MEAN_MOTION_DOT":-1.98e-6,"MEAN_MOTION_DDOT":0},{"OBJECT_NAME":"QUETZSAT 1","OBJECT_ID":"2011-054A","EPOCH":"2026-03-07T02:50:38.952096","MEAN_MOTION":1.00272744,"ECCENTRICITY":0.0002696,"INCLINATION":0.0477,"RA_OF_ASC_NODE":293.103,"ARG_OF_PERICENTER":60.5634,"MEAN_ANOMALY":136.8186,"EPHEMERIS_TYPE":0,"CLASSIFICATION_TYPE":"U","NORAD_CAT_ID":37826,"ELEMENT_SET_NO":999,"REV_AT_EPOCH":4885,"BSTAR":0,"MEAN_MOTION_DOT":-2.44e-6,"MEAN_MOTION_DDOT":0},{"OBJECT_NAME":"SES-4","OBJECT_ID":"2012-007A","EPOCH":"2026-03-06T10:32:38.658048","MEAN_MOTION":1.00270086,"ECCENTRICITY":0.00021933,"INCLINATION":0.0353,"RA_OF_ASC_NODE":65.8553,"ARG_OF_PERICENTER":272.1207,"MEAN_ANOMALY":322.3456,"EPHEMERIS_TYPE":0,"CLASSIFICATION_TYPE":"U","NORAD_CAT_ID":38087,"ELEMENT_SET_NO":999,"REV_AT_EPOCH":5119,"BSTAR":0,"MEAN_MOTION_DOT":-1.73e-6,"MEAN_MOTION_DDOT":0},{"OBJECT_NAME":"SES-5","OBJECT_ID":"2012-036A","EPOCH":"2026-03-06T05:25:24.259008","MEAN_MOTION":1.00271218,"ECCENTRICITY":0.0001901,"INCLINATION":0.0597,"RA_OF_ASC_NODE":310.4117,"ARG_OF_PERICENTER":31.4449,"MEAN_ANOMALY":268.4077,"EPHEMERIS_TYPE":0,"CLASSIFICATION_TYPE":"U","NORAD_CAT_ID":38652,"ELEMENT_SET_NO":999,"REV_AT_EPOCH":4342,"BSTAR":0,"MEAN_MOTION_DOT":2.8e-7,"MEAN_MOTION_DDOT":0},{"OBJECT_NAME":"ASTRA 2F","OBJECT_ID":"2012-051A","EPOCH":"2026-03-06T14:05:26.227968","MEAN_MOTION":1.00276624,"ECCENTRICITY":0.00022909,"INCLINATION":0.092,"RA_OF_ASC_NODE":260.0553,"ARG_OF_PERICENTER":10.6931,"MEAN_ANOMALY":133.1353,"EPHEMERIS_TYPE":0,"CLASSIFICATION_TYPE":"U","NORAD_CAT_ID":38778,"ELEMENT_SET_NO":999,"REV_AT_EPOCH":4010,"BSTAR":0,"MEAN_MOTION_DOT":1.46e-6,"MEAN_MOTION_DDOT":0},{"OBJECT_NAME":"SES-6","OBJECT_ID":"2013-026A","EPOCH":"2026-03-07T02:15:45.857664","MEAN_MOTION":1.0027149,"ECCENTRICITY":0.0001866,"INCLINATION":0.0601,"RA_OF_ASC_NODE":290.9303,"ARG_OF_PERICENTER":69.3422,"MEAN_ANOMALY":157.9518,"EPHEMERIS_TYPE":0,"CLASSIFICATION_TYPE":"U","NORAD_CAT_ID":39172,"ELEMENT_SET_NO":999,"REV_AT_EPOCH":4670,"BSTAR":0,"MEAN_MOTION_DOT":-2.64e-6,"MEAN_MOTION_DDOT":0},{"OBJECT_NAME":"O3B FM5","OBJECT_ID":"2013-031A","EPOCH":"2026-03-06T21:30:20.326176","MEAN_MOTION":5.00116485,"ECCENTRICITY":0.0003327,"INCLINATION":0.0981,"RA_OF_ASC_NODE":13.3428,"ARG_OF_PERICENTER":323.3646,"MEAN_ANOMALY":23.2725,"EPHEMERIS_TYPE":0,"CLASSIFICATION_TYPE":"U","NORAD_CAT_ID":39188,"ELEMENT_SET_NO":999,"REV_AT_EPOCH":23191,"BSTAR":0,"MEAN_MOTION_DOT":-2.6e-7,"MEAN_MOTION_DDOT":0},{"OBJECT_NAME":"O3B FM4","OBJECT_ID":"2013-031B","EPOCH":"2026-03-06T05:10:33.487104","MEAN_MOTION":5.00115247,"ECCENTRICITY":0.00050863,"INCLINATION":0.0553,"RA_OF_ASC_NODE":345.1172,"ARG_OF_PERICENTER":9.2557,"MEAN_ANOMALY":5.6159,"EPHEMERIS_TYPE":0,"CLASSIFICATION_TYPE":"U","NORAD_CAT_ID":39189,"ELEMENT_SET_NO":999,"REV_AT_EPOCH":23189,"BSTAR":0,"MEAN_MOTION_DOT":-2.6e-7,"MEAN_MOTION_DDOT":0},{"OBJECT_NAME":"O3B FM2","OBJECT_ID":"2013-031C","EPOCH":"2026-03-07T01:56:30.496128","MEAN_MOTION":5.00116011,"ECCENTRICITY":0.0002815,"INCLINATION":0.0561,"RA_OF_ASC_NODE":338.8755,"ARG_OF_PERICENTER":5.7081,"MEAN_ANOMALY":15.4029,"EPHEMERIS_TYPE":0,"CLASSIFICATION_TYPE":"U","NORAD_CAT_ID":39190,"ELEMENT_SET_NO":999,"REV_AT_EPOCH":23200,"BSTAR":0,"MEAN_MOTION_DOT":-2.6e-7,"MEAN_MOTION_DDOT":0},{"OBJECT_NAME":"O3B PFM","OBJECT_ID":"2013-031D","EPOCH":"2026-03-06T02:17:37.197024","MEAN_MOTION":5.00115906,"ECCENTRICITY":0.00051477,"INCLINATION":0.0668,"RA_OF_ASC_NODE":7.2787,"ARG_OF_PERICENTER":352.3292,"MEAN_ANOMALY":0.3862,"EPHEMERIS_TYPE":0,"CLASSIFICATION_TYPE":"U","NORAD_CAT_ID":39191,"ELEMENT_SET_NO":999,"REV_AT_EPOCH":23151,"BSTAR":0,"MEAN_MOTION_DOT":-2.6e-7,"MEAN_MOTION_DDOT":0},{"OBJECT_NAME":"ASTRA 2E","OBJECT_ID":"2013-056A","EPOCH":"2026-03-07T01:52:21.715104","MEAN_MOTION":1.0027337,"ECCENTRICITY":0.0002178,"INCLINATION":0.0738,"RA_OF_ASC_NODE":35.3208,"ARG_OF_PERICENTER":305.8848,"MEAN_ANOMALY":240.1477,"EPHEMERIS_TYPE":0,"CLASSIFICATION_TYPE":"U","NORAD_CAT_ID":39285,"ELEMENT_SET_NO":999,"REV_AT_EPOCH":4539,"BSTAR":0,"MEAN_MOTION_DOT":1.48e-6,"MEAN_MOTION_DDOT":0},{"OBJECT_NAME":"SES-8","OBJECT_ID":"2013-071A","EPOCH":"2026-03-07T00:40:44.121216","MEAN_MOTION":1.00272302,"ECCENTRICITY":0.0001768,"INCLINATION":0.0515,"RA_OF_ASC_NODE":270.8461,"ARG_OF_PERICENTER":105.4275,"MEAN_ANOMALY":253.6443,"EPHEMERIS_TYPE":0,"CLASSIFICATION_TYPE":"U","NORAD_CAT_ID":39460,"ELEMENT_SET_NO":999,"REV_AT_EPOCH":4341,"BSTAR":0,"MEAN_MOTION_DOT":-2.72e-6,"MEAN_MOTION_DDOT":0},{"OBJECT_NAME":"ASTRA 5B","OBJECT_ID":"2014-011B","EPOCH":"2026-03-07T01:52:21.715104","MEAN_MOTION":1.00272471,"ECCENTRICITY":0.0004003,"INCLINATION":0.0853,"RA_OF_ASC_NODE":301.2671,"ARG_OF_PERICENTER":28.9943,"MEAN_ANOMALY":246.0885,"EPHEMERIS_TYPE":0,"CLASSIFICATION_TYPE":"U","NORAD_CAT_ID":39617,"ELEMENT_SET_NO":999,"REV_AT_EPOCH":4364,"BSTAR":0,"MEAN_MOTION_DOT":1.34e-6,"MEAN_MOTION_DDOT":0},{"OBJECT_NAME":"O3B FM3","OBJECT_ID":"2014-038A","EPOCH":"2026-03-06T23:04:55.637184","MEAN_MOTION":5.00115587,"ECCENTRICITY":6.38e-5,"INCLINATION":0.053,"RA_OF_ASC_NODE":353.4777,"ARG_OF_PERICENTER":57.1388,"MEAN_ANOMALY":309.3841,"EPHEMERIS_TYPE":0,"CLASSIFICATION_TYPE":"U","NORAD_CAT_ID":40079,"ELEMENT_SET_NO":999,"REV_AT_EPOCH":20793,"BSTAR":0,"MEAN_MOTION_DOT":-2.6e-7,"MEAN_MOTION_DDOT":0},{"OBJECT_NAME":"O3B FM7","OBJECT_ID":"2014-038B","EPOCH":"2026-03-02T07:26:54.646080","MEAN_MOTION":5.00115622,"ECCENTRICITY":0.00044887,"INCLINATION":0.0588,"RA_OF_ASC_NODE":348.9474,"ARG_OF_PERICENTER":339.4059,"MEAN_ANOMALY":31.6123,"EPHEMERIS_TYPE":0,"CLASSIFICATION_TYPE":"U","NORAD_CAT_ID":40080,"ELEMENT_SET_NO":999,"REV_AT_EPOCH":21253,"BSTAR":0,"MEAN_MOTION_DOT":-2.9e-7,"MEAN_MOTION_DDOT":0},{"OBJECT_NAME":"O3B FM6","OBJECT_ID":"2014-038C","EPOCH":"2026-03-06T17:38:20.331456","MEAN_MOTION":5.00115757,"ECCENTRICITY":0.0002664,"INCLINATION":0.0549,"RA_OF_ASC_NODE":351.2792,"ARG_OF_PERICENTER":351.0679,"MEAN_ANOMALY":17.6384,"EPHEMERIS_TYPE":0,"CLASSIFICATION_TYPE":"U","NORAD_CAT_ID":40081,"ELEMENT_SET_NO":999,"REV_AT_EPOCH":21270,"BSTAR":0,"MEAN_MOTION_DOT":-2.6e-7,"MEAN_MOTION_DDOT":0},{"OBJECT_NAME":"O3B FM8","OBJECT_ID":"2014-038D","EPOCH":"2026-03-06T09:19:25.860864","MEAN_MOTION":5.00116014,"ECCENTRICITY":0.0002654,"INCLINATION":0.0558,"RA_OF_ASC_NODE":350.6402,"ARG_OF_PERICENTER":356.7405,"MEAN_ANOMALY":12.6073,"EPHEMERIS_TYPE":0,"CLASSIFICATION_TYPE":"U","NORAD_CAT_ID":40082,"ELEMENT_SET_NO":999,"REV_AT_EPOCH":21280,"BSTAR":0,"MEAN_MOTION_DOT":-2.6e-7,"MEAN_MOTION_DDOT":0}]
